STARLINK-1540_new
1 16051C 20055AA  21326.14982549  .00000915  00000-0  61329-4 0  3268
2 16051  53.0538 318.0745 0002036  53.3928  71.8506 15.06397984    11
STARLINK-1540_old
1 26051C 20055AA  21325.15400442  .00000329  00000-0  22048-4 0  3258
2 26051  53.0533 322.5451 0001946  52.9710  68.9449 15.06386330    19
